STARLINK-35693          
1 66490U 25263F   25339.25002315 -.02062472  00000+0 -24383-1 0  9998
2 66490  42.9994 169.1234 0001456 272.4534 209.1288 15.63882531  4436
STARLINK-35663          
1 66491U 25263G   25339.25002315 -.02056780  00000+0 -24309-1 0  9992
2 66491  42.9988 169.1136 0001424 271.6372 213.7770 15.63880408  4435
STARLINK-35673          
1 66492U 25263H   25339.25002315 -.02059575  00000+0 -24345-1 0  9998
2 66492  42.9990 169.1085 0001487 272.0418 215.2915 15.63880799  4438
STARLINK-35597          
1 66493U 25263J   25339.25002315 -.02054895  00000+0 -24287-1 0  9994
2 66493  42.9991 169.1037 0001450 271.0423 218.2114 15.63875970  4431
STARLINK-35689          
1 66494U 25263K   25339.25002315 -.02050979  00000+0 -24235-1 0  9997
2 66494  42.9989 169.1188 0001453 271.5902 211.9105 15.63874941  4433
STARLINK-35832          
1 66495U 25263L   25339.25002315 -.02060987  00000+0 -24363-1 0  9990
2 66495  42.9992 169.0986 0001445 271.4998 219.6660 15.63882560  4435
STARLINK-35909          
1 66496U 25263M   25339.25002315 -.02055021  00000+0 -24290-1 0  9993
2 66496  42.9993 169.0941 0001472 270.5227 222.5671 15.63874815  4432
STARLINK-35899          
1 66497U 25263N   25339.25002315 -.02056693  00000+0 -24309-1 0  9991
2 66497  42.9991 169.0886 0001470 270.1412 224.8606 15.63878688  4434
STARLINK-35907          
1 66498U 25263P   25339.25002315 -.02056150  00000+0 -24305-1 0  9996
2 66498  42.9990 169.0838 0001456 270.8550 226.0703 15.63874760  4434
STARLINK-35816          
1 66499U 25263Q   25339.25002315 -.02047744  00000+0 -24195-1 0  9993
2 66499  42.9991 169.0744 0001420 270.9221 229.8341 15.63872021  4436
STARLINK-35894          
1 66500U 25263R   25339.25002315 -.02523154  00000+0 -33210-1 0  9998
2 66500  42.9991 169.1075 0001309 272.2296 215.3375 15.61322690  4437
STARLINK-35897          
1 66501U 25263S   25339.25002315 -.02240034  00000+0 -26238-1 0  9994
2 66501  42.9992 169.0691 0002019 304.3318 198.6772 15.63832856  4439
