CCSDS_OMM_VERS = 2.0
CREATION_DATE  = 
ORIGINATOR     = 

OBJECT_NAME    = STARLINK-35693
OBJECT_ID      = 2025-263F
CENTER_NAME    = EARTH
REF_FRAME      = TEME
TIME_SYSTEM    = UTC
MEAN_ELEMENT_THEORY = SGP/SGP4

EPOCH          = 2025-12-05T06:00:02.000160
MEAN_MOTION    = 15.63882531
ECCENTRICITY   = .00014564
INCLINATION    = 42.9994
RA_OF_ASC_NODE = 169.1234
ARG_OF_PERICENTER = 272.4534
MEAN_ANOMALY   = 209.1288

EPHEMERIS_TYPE = 0
CLASSIFICATION_TYPE = U
NORAD_CAT_ID   = 66490
ELEMENT_SET_NO = 999
REV_AT_EPOCH   = 443
BSTAR          = -.24383375E-1
MEAN_MOTION_DOT = -.2062472E-1
MEAN_MOTION_DDOT = 0

CCSDS_OMM_VERS = 2.0
CREATION_DATE  = 
ORIGINATOR     = 

OBJECT_NAME    = STARLINK-35663
OBJECT_ID      = 2025-263G
CENTER_NAME    = EARTH
REF_FRAME      = TEME
TIME_SYSTEM    = UTC
MEAN_ELEMENT_THEORY = SGP/SGP4

EPOCH          = 2025-12-05T06:00:02.000160
MEAN_MOTION    = 15.63880408
ECCENTRICITY   = .00014242
INCLINATION    = 42.9988
RA_OF_ASC_NODE = 169.1136
ARG_OF_PERICENTER = 271.6372
MEAN_ANOMALY   = 213.7770

EPHEMERIS_TYPE = 0
CLASSIFICATION_TYPE = U
NORAD_CAT_ID   = 66491
ELEMENT_SET_NO = 999
REV_AT_EPOCH   = 443
BSTAR          = -.24308704E-1
MEAN_MOTION_DOT = -.205678E-1
MEAN_MOTION_DDOT = 0

CCSDS_OMM_VERS = 2.0
CREATION_DATE  = 
ORIGINATOR     = 

OBJECT_NAME    = STARLINK-35673
OBJECT_ID      = 2025-263H
CENTER_NAME    = EARTH
REF_FRAME      = TEME
TIME_SYSTEM    = UTC
MEAN_ELEMENT_THEORY = SGP/SGP4

EPOCH          = 2025-12-05T06:00:02.000160
MEAN_MOTION    = 15.63880799
ECCENTRICITY   = .00014874
INCLINATION    = 42.9990
RA_OF_ASC_NODE = 169.1085
ARG_OF_PERICENTER = 272.0418
MEAN_ANOMALY   = 215.2915

EPHEMERIS_TYPE = 0
CLASSIFICATION_TYPE = U
NORAD_CAT_ID   = 66492
ELEMENT_SET_NO = 999
REV_AT_EPOCH   = 443
BSTAR          = -.24345465E-1
MEAN_MOTION_DOT = -.2059575E-1
MEAN_MOTION_DDOT = 0

CCSDS_OMM_VERS = 2.0
CREATION_DATE  = 
ORIGINATOR     = 

OBJECT_NAME    = STARLINK-35597
OBJECT_ID      = 2025-263J
CENTER_NAME    = EARTH
REF_FRAME      = TEME
TIME_SYSTEM    = UTC
MEAN_ELEMENT_THEORY = SGP/SGP4

EPOCH          = 2025-12-05T06:00:02.000160
MEAN_MOTION    = 15.63875970
ECCENTRICITY   = .00014505
INCLINATION    = 42.9991
RA_OF_ASC_NODE = 169.1037
ARG_OF_PERICENTER = 271.0423
MEAN_ANOMALY   = 218.2114

EPHEMERIS_TYPE = 0
CLASSIFICATION_TYPE = U
NORAD_CAT_ID   = 66493
ELEMENT_SET_NO = 999
REV_AT_EPOCH   = 443
BSTAR          = -.24287216E-1
MEAN_MOTION_DOT = -.2054895E-1
MEAN_MOTION_DDOT = 0

CCSDS_OMM_VERS = 2.0
CREATION_DATE  = 
ORIGINATOR     = 

OBJECT_NAME    = STARLINK-35689
OBJECT_ID      = 2025-263K
CENTER_NAME    = EARTH
REF_FRAME      = TEME
TIME_SYSTEM    = UTC
MEAN_ELEMENT_THEORY = SGP/SGP4

EPOCH          = 2025-12-05T06:00:02.000160
MEAN_MOTION    = 15.63874941
ECCENTRICITY   = .00014539
INCLINATION    = 42.9989
RA_OF_ASC_NODE = 169.1188
ARG_OF_PERICENTER = 271.5902
MEAN_ANOMALY   = 211.9105

EPHEMERIS_TYPE = 0
CLASSIFICATION_TYPE = U
NORAD_CAT_ID   = 66494
ELEMENT_SET_NO = 999
REV_AT_EPOCH   = 443
BSTAR          = -.24235186E-1
MEAN_MOTION_DOT = -.2050979E-1
MEAN_MOTION_DDOT = 0

CCSDS_OMM_VERS = 2.0
CREATION_DATE  = 
ORIGINATOR     = 

OBJECT_NAME    = STARLINK-35832
OBJECT_ID      = 2025-263L
CENTER_NAME    = EARTH
REF_FRAME      = TEME
TIME_SYSTEM    = UTC
MEAN_ELEMENT_THEORY = SGP/SGP4

EPOCH          = 2025-12-05T06:00:02.000160
MEAN_MOTION    = 15.63882560
ECCENTRICITY   = .00014452
INCLINATION    = 42.9992
RA_OF_ASC_NODE = 169.0986
ARG_OF_PERICENTER = 271.4998
MEAN_ANOMALY   = 219.6660

EPHEMERIS_TYPE = 0
CLASSIFICATION_TYPE = U
NORAD_CAT_ID   = 66495
ELEMENT_SET_NO = 999
REV_AT_EPOCH   = 443
BSTAR          = -.24363341E-1
MEAN_MOTION_DOT = -.2060987E-1
MEAN_MOTION_DDOT = 0

CCSDS_OMM_VERS = 2.0
CREATION_DATE  = 
ORIGINATOR     = 

OBJECT_NAME    = STARLINK-35909
OBJECT_ID      = 2025-263M
CENTER_NAME    = EARTH
REF_FRAME      = TEME
TIME_SYSTEM    = UTC
MEAN_ELEMENT_THEORY = SGP/SGP4

EPOCH          = 2025-12-05T06:00:02.000160
MEAN_MOTION    = 15.63874815
ECCENTRICITY   = .00014724
INCLINATION    = 42.9993
RA_OF_ASC_NODE = 169.0941
ARG_OF_PERICENTER = 270.5227
MEAN_ANOMALY   = 222.5671

EPHEMERIS_TYPE = 0
CLASSIFICATION_TYPE = U
NORAD_CAT_ID   = 66496
ELEMENT_SET_NO = 999
REV_AT_EPOCH   = 443
BSTAR          = -.24289801E-1
MEAN_MOTION_DOT = -.2055021E-1
MEAN_MOTION_DDOT = 0

CCSDS_OMM_VERS = 2.0
CREATION_DATE  = 
ORIGINATOR     = 

OBJECT_NAME    = STARLINK-35899
OBJECT_ID      = 2025-263N
CENTER_NAME    = EARTH
REF_FRAME      = TEME
TIME_SYSTEM    = UTC
MEAN_ELEMENT_THEORY = SGP/SGP4

EPOCH          = 2025-12-05T06:00:02.000160
MEAN_MOTION    = 15.63878688
ECCENTRICITY   = .00014704
INCLINATION    = 42.9991
RA_OF_ASC_NODE = 169.0886
ARG_OF_PERICENTER = 270.1412
MEAN_ANOMALY   = 224.8606

EPHEMERIS_TYPE = 0
CLASSIFICATION_TYPE = U
NORAD_CAT_ID   = 66497
ELEMENT_SET_NO = 999
REV_AT_EPOCH   = 443
BSTAR          = -.24308688E-1
MEAN_MOTION_DOT = -.2056693E-1
MEAN_MOTION_DDOT = 0

CCSDS_OMM_VERS = 2.0
CREATION_DATE  = 
ORIGINATOR     = 

OBJECT_NAME    = STARLINK-35907
OBJECT_ID      = 2025-263P
CENTER_NAME    = EARTH
REF_FRAME      = TEME
TIME_SYSTEM    = UTC
MEAN_ELEMENT_THEORY = SGP/SGP4

EPOCH          = 2025-12-05T06:00:02.000160
MEAN_MOTION    = 15.63874760
ECCENTRICITY   = .0001456
INCLINATION    = 42.9990
RA_OF_ASC_NODE = 169.0838
ARG_OF_PERICENTER = 270.8550
MEAN_ANOMALY   = 226.0703

EPHEMERIS_TYPE = 0
CLASSIFICATION_TYPE = U
NORAD_CAT_ID   = 66498
ELEMENT_SET_NO = 999
REV_AT_EPOCH   = 443
BSTAR          = -.24305321E-1
MEAN_MOTION_DOT = -.205615E-1
MEAN_MOTION_DDOT = 0

CCSDS_OMM_VERS = 2.0
CREATION_DATE  = 
ORIGINATOR     = 

OBJECT_NAME    = STARLINK-35816
OBJECT_ID      = 2025-263Q
CENTER_NAME    = EARTH
REF_FRAME      = TEME
TIME_SYSTEM    = UTC
MEAN_ELEMENT_THEORY = SGP/SGP4

EPOCH          = 2025-12-05T06:00:02.000160
MEAN_MOTION    = 15.63872021
ECCENTRICITY   = .000142
INCLINATION    = 42.9991
RA_OF_ASC_NODE = 169.0744
ARG_OF_PERICENTER = 270.9221
MEAN_ANOMALY   = 229.8341

EPHEMERIS_TYPE = 0
CLASSIFICATION_TYPE = U
NORAD_CAT_ID   = 66499
ELEMENT_SET_NO = 999
REV_AT_EPOCH   = 443
BSTAR          = -.24194633E-1
MEAN_MOTION_DOT = -.2047744E-1
MEAN_MOTION_DDOT = 0

CCSDS_OMM_VERS = 2.0
CREATION_DATE  = 
ORIGINATOR     = 

OBJECT_NAME    = STARLINK-35894
OBJECT_ID      = 2025-263R
CENTER_NAME    = EARTH
REF_FRAME      = TEME
TIME_SYSTEM    = UTC
MEAN_ELEMENT_THEORY = SGP/SGP4

EPOCH          = 2025-12-05T06:00:02.000160
MEAN_MOTION    = 15.61322690
ECCENTRICITY   = .00013094
INCLINATION    = 42.9991
RA_OF_ASC_NODE = 169.1075
ARG_OF_PERICENTER = 272.2296
MEAN_ANOMALY   = 215.3375

EPHEMERIS_TYPE = 0
CLASSIFICATION_TYPE = U
NORAD_CAT_ID   = 66500
ELEMENT_SET_NO = 999
REV_AT_EPOCH   = 443
BSTAR          = -.33210048E-1
MEAN_MOTION_DOT = -.2523154E-1
MEAN_MOTION_DDOT = 0

CCSDS_OMM_VERS = 2.0
CREATION_DATE  = 
ORIGINATOR     = 

OBJECT_NAME    = STARLINK-35897
OBJECT_ID      = 2025-263S
CENTER_NAME    = EARTH
REF_FRAME      = TEME
TIME_SYSTEM    = UTC
MEAN_ELEMENT_THEORY = SGP/SGP4

EPOCH          = 2025-12-05T06:00:02.000160
MEAN_MOTION    = 15.63832856
ECCENTRICITY   = .00020195
INCLINATION    = 42.9992
RA_OF_ASC_NODE = 169.0691
ARG_OF_PERICENTER = 304.3318
MEAN_ANOMALY   = 198.6772

EPHEMERIS_TYPE = 0
CLASSIFICATION_TYPE = U
NORAD_CAT_ID   = 66501
ELEMENT_SET_NO = 999
REV_AT_EPOCH   = 443
BSTAR          = -.26237661E-1
MEAN_MOTION_DOT = -.2240034E-1
MEAN_MOTION_DDOT = 0

